{"type": "FeatureCollection", "features": [{"type": "Feature", "properties": {"GEO_ID": "0500000US39007", "STATE": "39", "COUNTY": "007", "NAME": "Ashtabula", "LSAD": "County", "CENSUSAREA": 701.931}, "geometry": {"type": "Polygon", "coordinates": [[[-80.973674, 41.858122], [-80.971141, 41.858409], [-80.958494, 41.859838], [-80.936244, 41.862352], [-80.916528, 41.865954], [-80.900342, 41.868912], [-80.853542, 41.884685], [-80.852064, 41.885183], [-80.826889, 41.893668], [-80.819165, 41.896271], [-80.816444, 41.897188], [-80.814943, 41.897694], [-80.81324, 41.89876], [-80.812659, 41.899125], [-80.808697, 41.901606], [-80.80801, 41.902304], [-80.806133, 41.904211], [-80.801436, 41.908982], [-80.800794, 41.909635], [-80.799822, 41.909749], [-80.798311, 41.909926], [-80.794388, 41.910386], [-80.78641, 41.911322], [-80.785497, 41.911429], [-80.784682, 41.911525], [-80.782944, 41.908294], [-80.782052, 41.906635], [-80.781112, 41.906897], [-80.77709, 41.908018], [-80.771784, 41.909496], [-80.770756, 41.909782], [-80.76802, 41.910545], [-80.766046, 41.911095], [-80.762176, 41.912173], [-80.757945, 41.913352], [-80.727504, 41.918593], [-80.720816, 41.919744], [-80.717469, 41.920656], [-80.712218, 41.922087], [-80.708293, 41.923157], [-80.699363, 41.925591], [-80.693429, 41.927208], [-80.635576, 41.942976], [-80.619443, 41.947373], [-80.619242, 41.947428], [-80.60861, 41.950325], [-80.581882, 41.95761], [-80.579439, 41.958499], [-80.576735, 41.959483], [-80.576591, 41.959535], [-80.5755, 41.959932], [-80.572028, 41.961196], [-80.563327, 41.964362], [-80.560671, 41.965328], [-80.555898, 41.967065], [-80.553836, 41.967815], [-80.533774, 41.973475], [-80.53139, 41.974147], [-80.530164, 41.974493], [-80.529274, 41.974744], [-80.525521, 41.975803], [-80.522057, 41.97678], [-80.519461, 41.977513], [-80.519425, 41.977523], [-80.519425, 41.977522], [-80.519405, 41.976158], [-80.519304, 41.943992], [-80.519345, 41.929168], [-80.519294, 41.849563], [-80.519239, 41.765138], [-80.519369, 41.752487], [-80.519408, 41.739359], [-80.519373, 41.701473], [-80.519424, 41.671228], [-80.519357, 41.669767], [-80.519339, 41.539297], [-80.519157, 41.528769], [-80.519225, 41.499924], [-81.003125, 41.501685], [-81.00299, 41.700009], [-81.003631, 41.715137], [-81.004763, 41.726436], [-81.002117, 41.854908], [-80.991799, 41.856074], [-80.973674, 41.858122]]]}, "id": "39007"}, {"type": "Feature", "properties": {"GEO_ID": "0500000US39085", "STATE": "39", "COUNTY": "085", "NAME": "Lake", "LSAD": "County", "CENSUSAREA": 227.493}, "geometry": {"type": "Polygon", "coordinates": [[[-81.391005, 41.569716], [-81.408992, 41.56985], [-81.41763, 41.56967], [-81.419936, 41.56995], [-81.487842, 41.570051], [-81.488139, 41.577328], [-81.488062, 41.598556], [-81.488934, 41.627948], [-81.48864, 41.631348], [-81.486919, 41.632704], [-81.477544, 41.640086], [-81.466038, 41.649148], [-81.452461, 41.663139], [-81.447734, 41.668011], [-81.443647, 41.672222], [-81.442843, 41.673051], [-81.44272, 41.673178], [-81.442645, 41.673255], [-81.442552, 41.673314], [-81.441803, 41.673783], [-81.441339, 41.674074], [-81.438971, 41.67556], [-81.437809, 41.676289], [-81.437014, 41.676788], [-81.435582, 41.677686], [-81.431441, 41.680285], [-81.413062, 41.691816], [-81.407984, 41.695002], [-81.406098, 41.696185], [-81.404476, 41.697203], [-81.402417, 41.698495], [-81.400686, 41.699581], [-81.400617, 41.699624], [-81.388632, 41.707144], [-81.388269, 41.707355], [-81.380935, 41.711622], [-81.374509, 41.715361], [-81.374454, 41.715393], [-81.373666, 41.715852], [-81.372587, 41.71648], [-81.368913, 41.718618], [-81.36867, 41.718759], [-81.367498, 41.719441], [-81.353229, 41.727743], [-81.330154, 41.737938], [-81.309499, 41.747064], [-81.30701, 41.748164], [-81.306495, 41.748392], [-81.301626, 41.750543], [-81.288892, 41.758945], [-81.286925, 41.760243], [-81.279925, 41.759944], [-81.279187, 41.759859], [-81.265576, 41.758298], [-81.264224, 41.758143], [-81.263751, 41.758239], [-81.26311, 41.758369], [-81.259349, 41.75913], [-81.25552, 41.759905], [-81.252977, 41.76042], [-81.251918, 41.760634], [-81.248672, 41.761291], [-81.248609, 41.761316], [-81.247832, 41.761623], [-81.247607, 41.761712], [-81.202359, 41.77957], [-81.201721, 41.779822], [-81.192684, 41.783389], [-81.184368, 41.786671], [-81.183328, 41.78712], [-81.167638, 41.793903], [-81.122295, 41.813503], [-81.112885, 41.817571], [-81.098931, 41.821319], [-81.095592, 41.822216], [-81.092716, 41.822988], [-81.05192, 41.839557], [-81.024525, 41.846469], [-81.01049, 41.853962], [-81.002663, 41.854846], [-81.002117, 41.854908], [-81.004763, 41.726436], [-81.003631, 41.715137], [-81.102258, 41.714307], [-81.101422, 41.641457], [-81.294669, 41.640889], [-81.29588, 41.56995], [-81.391005, 41.569716]]]}, "id": "39085"}, {"type": "Feature", "properties": {"GEO_ID": "0500000US39055", "STATE": "39", "COUNTY": "055", "NAME": "Geauga", "LSAD": "County", "CENSUSAREA": 400.164}, "geometry": {"type": "Polygon", "coordinates": [[[-81.003066, 41.425928], [-81.003194, 41.424482], [-81.003319, 41.34786], [-81.391694, 41.348272], [-81.391005, 41.569716], [-81.29588, 41.56995], [-81.294669, 41.640889], [-81.101422, 41.641457], [-81.102258, 41.714307], [-81.003631, 41.715137], [-81.00299, 41.700009], [-81.003125, 41.501685], [-81.003066, 41.425928]]]}, "id": "39055"}, {"type": "Feature", "properties": {"GEO_ID": "0500000US39155", "STATE": "39", "COUNTY": "155", "NAME": "Trumbull", "LSAD": "County", "CENSUSAREA": 618.297}, "geometry": {"type": "Polygon", "coordinates": [[[-80.519345, 41.34074], [-80.519345, 41.340145], [-80.519293, 41.339654], [-80.519293, 41.339054], [-80.519311, 41.339052], [-80.519281, 41.337174], [-80.519281, 41.337145], [-80.519281, 41.335958], [-80.519265, 41.333495], [-80.519129, 41.312408], [-80.518794, 41.305509], [-80.518996, 41.2683], [-80.518993, 41.268155], [-80.518893, 41.265155], [-80.518693, 41.248855], [-80.518893, 41.232556], [-80.518893, 41.219357], [-80.518893, 41.219356], [-80.51883, 41.209213], [-80.519144, 41.171203], [-80.519115, 41.14552], [-80.519167, 41.133388], [-80.789472, 41.134159], [-81.00229, 41.134189], [-81.00288, 41.271842], [-81.003319, 41.34786], [-81.003194, 41.424482], [-81.003066, 41.425928], [-81.003125, 41.501685], [-80.519225, 41.499924], [-80.519209, 41.489013], [-80.519169, 41.462581], [-80.518993, 41.435454], [-80.518993, 41.416437], [-80.519025, 41.416438], [-80.519249, 41.378918], [-80.519217, 41.372006], [-80.519249, 41.36103], [-80.519297, 41.350833], [-80.519345, 41.34074]]]}, "id": "39155"}, {"type": "Feature", "properties": {"GEO_ID": "0500000US39133", "STATE": "39", "COUNTY": "133", "NAME": "Portage", "LSAD": "County", "CENSUSAREA": 487.381}, "geometry": {"type": "Polygon", "coordinates": [[[-81.393429, 40.988528], [-81.392114, 41.135722], [-81.392357, 41.136952], [-81.391831, 41.276654], [-81.391593, 41.33155], [-81.391933, 41.336635], [-81.391686, 41.3413], [-81.391694, 41.348272], [-81.003319, 41.34786], [-81.00288, 41.271842], [-81.00229, 41.134189], [-81.001695, 40.987783], [-81.086817, 40.988158], [-81.393429, 40.988528]]]}, "id": "39133"}]}