{"type": "FeatureCollection", "features": [{"type": "Feature", "properties": {"GEO_ID": "0500000US39009", "STATE": "39", "COUNTY": "009", "NAME": "Athens", "LSAD": "County", "CENSUSAREA": 503.598}, "geometry": {"type": "Polygon", "coordinates": [[[-82.055779, 39.460053], [-81.844863, 39.450216], [-81.853668, 39.318165], [-81.721808, 39.269597], [-81.721551, 39.212448], [-81.740061, 39.190652], [-81.749853, 39.186489], [-81.749689, 39.180742], [-82.268583, 39.20376], [-82.263952, 39.253289], [-82.263767, 39.253786], [-82.263645, 39.255898], [-82.263682, 39.256194], [-82.260243, 39.292915], [-82.298476, 39.294996], [-82.289663, 39.384195], [-82.28041, 39.472906], [-82.167379, 39.466307], [-82.159161, 39.556574], [-82.047528, 39.550825], [-82.055779, 39.460053]]]}, "id": "39009"}, {"type": "Feature", "properties": {"GEO_ID": "0500000US39073", "STATE": "39", "COUNTY": "073", "NAME": "Hocking", "LSAD": "County", "CENSUSAREA": 421.323}, "geometry": {"type": "Polygon", "coordinates": [[[-82.374531, 39.654959], [-82.37989, 39.596738], [-82.159161, 39.556574], [-82.167379, 39.466307], [-82.28041, 39.472906], [-82.289663, 39.384195], [-82.514479, 39.395767], [-82.51758, 39.369468], [-82.748591, 39.368165], [-82.740771, 39.466029], [-82.740729, 39.46835], [-82.731518, 39.554445], [-82.620088, 39.563987], [-82.617546, 39.608605], [-82.496123, 39.602849], [-82.490329, 39.661704], [-82.374531, 39.654959]]]}, "id": "39073"}, {"type": "Feature", "properties": {"GEO_ID": "0500000US39127", "STATE": "39", "COUNTY": "127", "NAME": "Perry", "LSAD": "County", "CENSUSAREA": 407.971}, "geometry": {"type": "Polygon", "coordinates": [[[-82.076639, 39.77096], [-82.024219, 39.724686], [-82.047528, 39.550825], [-82.159161, 39.556574], [-82.37989, 39.596738], [-82.374531, 39.654959], [-82.396594, 39.833057], [-82.472402, 39.837223], [-82.462813, 39.93038], [-82.233974, 39.91326], [-82.162372, 39.909374], [-82.170047, 39.82075], [-82.072934, 39.816227], [-82.076639, 39.77096]]]}, "id": "39127"}, {"type": "Feature", "properties": {"GEO_ID": "0500000US39163", "STATE": "39", "COUNTY": "163", "NAME": "Vinton", "LSAD": "County", "CENSUSAREA": 412.36}, "geometry": {"type": "Polygon", "coordinates": [[[-82.289663, 39.384195], [-82.298476, 39.294996], [-82.260243, 39.292915], [-82.263682, 39.256194], [-82.263645, 39.255898], [-82.263767, 39.253786], [-82.263952, 39.253289], [-82.268583, 39.20376], [-82.306669, 39.205494], [-82.322874, 39.027674], [-82.435309, 39.035079], [-82.424677, 39.137972], [-82.536306, 39.180757], [-82.762892, 39.207967], [-82.748591, 39.368165], [-82.51758, 39.369468], [-82.514479, 39.395767], [-82.289663, 39.384195]]]}, "id": "39163"}, {"type": "Feature", "properties": {"GEO_ID": "0500000US39115", "STATE": "39", "COUNTY": "115", "NAME": "Morgan", "LSAD": "County", "CENSUSAREA": 416.423}, "geometry": {"type": "Polygon", "coordinates": [[[-81.844863, 39.450216], [-82.055779, 39.460053], [-82.047528, 39.550825], [-82.024219, 39.724686], [-82.076639, 39.77096], [-81.697442, 39.755572], [-81.639886, 39.75342], [-81.6432, 39.665681], [-81.586132, 39.663993], [-81.588185, 39.586973], [-81.714447, 39.584236], [-81.708527, 39.480775], [-81.823158, 39.494072], [-81.844863, 39.450216]]]}, "id": "39115"}]}