{"type": "FeatureCollection", "features": [{"type": "Feature", "properties": {"GEO_ID": "0500000US39019", "STATE": "39", "COUNTY": "019", "NAME": "Carroll", "LSAD": "County", "CENSUSAREA": 394.609}, "geometry": {"type": "Polygon", "coordinates": [[[-80.861994, 40.599404], [-80.92092, 40.556315], [-80.941911, 40.4247], [-81.269951, 40.433486], [-81.264744, 40.565042], [-81.321659, 40.566648], [-81.317739, 40.651579], [-81.24125, 40.650534], [-81.237227, 40.723542], [-81.087289, 40.727816], [-80.917172, 40.726934], [-80.918125, 40.643464], [-80.861994, 40.599404]]]}, "id": "39019"}, {"type": "Feature", "properties": {"GEO_ID": "0500000US39151", "STATE": "39", "COUNTY": "151", "NAME": "Stark", "LSAD": "County", "CENSUSAREA": 575.271}, "geometry": {"type": "Polygon", "coordinates": [[[-81.467584, 40.907965], [-81.420418, 40.906504], [-81.393429, 40.988528], [-81.086817, 40.988158], [-81.086919, 40.981164], [-81.086719, 40.944945], [-81.086601, 40.944758], [-81.086614, 40.940774], [-81.086918, 40.939658], [-81.086601, 40.937622], [-81.086642, 40.932189], [-81.086688, 40.931737], [-81.086679, 40.901609], [-81.087289, 40.727816], [-81.237227, 40.723542], [-81.24125, 40.650534], [-81.317739, 40.651579], [-81.649199, 40.635106], [-81.650048, 40.65526], [-81.650045, 40.668117], [-81.647736, 40.914386], [-81.64595, 40.914257], [-81.467584, 40.907965]]]}, "id": "39151"}, {"type": "Feature", "properties": {"GEO_ID": "0500000US39157", "STATE": "39", "COUNTY": "157", "NAME": "Tuscarawas", "LSAD": "County", "CENSUSAREA": 567.636}, "geometry": {"type": "Polygon", "coordinates": [[[-81.649199, 40.635106], [-81.317739, 40.651579], [-81.321659, 40.566648], [-81.264744, 40.565042], [-81.269951, 40.433486], [-81.275319, 40.303434], [-81.334601, 40.304316], [-81.338057, 40.214253], [-81.622683, 40.221308], [-81.61603, 40.368118], [-81.712288, 40.370804], [-81.709132, 40.444775], [-81.669654, 40.443866], [-81.649199, 40.635106]]]}, "id": "39157"}, {"type": "Feature", "properties": {"GEO_ID": "0500000US39067", "STATE": "39", "COUNTY": "067", "NAME": "Harrison", "LSAD": "County", "CENSUSAREA": 402.339}, "geometry": {"type": "Polygon", "coordinates": [[[-81.035504, 40.164874], [-81.225924, 40.170075], [-81.339565, 40.171999], [-81.338057, 40.214253], [-81.334601, 40.304316], [-81.275319, 40.303434], [-81.269951, 40.433486], [-80.941911, 40.4247], [-80.865504, 40.422929], [-80.882892, 40.159495], [-81.035504, 40.164874]]]}, "id": "39067"}, {"type": "Feature", "properties": {"GEO_ID": "0500000US39029", "STATE": "39", "COUNTY": "029", "NAME": "Columbiana", "LSAD": "County", "CENSUSAREA": 531.893}, "geometry": {"type": "Polygon", "coordinates": [[[-80.519764, 40.899858], [-80.519039, 40.851339], [-80.51902, 40.850073], [-80.519081, 40.849157], [-80.518992, 40.801221], [-80.519058, 40.792298], [-80.518991, 40.638801], [-80.56072, 40.62368], [-80.589041, 40.620128], [-80.594065, 40.623664], [-80.601494, 40.625387], [-80.627171, 40.619936], [-80.634355, 40.616095], [-80.665892, 40.587728], [-80.667957, 40.582496], [-80.861994, 40.599404], [-80.918125, 40.643464], [-80.917172, 40.726934], [-81.087289, 40.727816], [-81.086679, 40.901609], [-80.519764, 40.899858]]]}, "id": "39029"}]}