{"type": "FeatureCollection", "features": [{"type": "Feature", "properties": {"GEO_ID": "0500000US39031", "STATE": "39", "COUNTY": "031", "NAME": "Coshocton", "LSAD": "County", "CENSUSAREA": 563.913}, "geometry": {"type": "Polygon", "coordinates": [[[-82.187105, 40.16688], [-82.182823, 40.238624], [-82.195911, 40.239071], [-82.184467, 40.454262], [-82.184607, 40.45628], [-81.709132, 40.444775], [-81.712288, 40.370804], [-81.61603, 40.368118], [-81.622683, 40.221308], [-81.716276, 40.152166], [-81.716868, 40.152863], [-82.187105, 40.16688]]]}, "id": "39031"}, {"type": "Feature", "properties": {"GEO_ID": "0500000US39075", "STATE": "39", "COUNTY": "075", "NAME": "Holmes", "LSAD": "County", "CENSUSAREA": 422.533}, "geometry": {"type": "Polygon", "coordinates": [[[-82.126199, 40.668229], [-81.650045, 40.668117], [-81.650048, 40.65526], [-81.649199, 40.635106], [-81.669654, 40.443866], [-81.709132, 40.444775], [-82.184607, 40.45628], [-82.179069, 40.573112], [-82.22011, 40.568206], [-82.220665, 40.66758], [-82.126199, 40.668229]]]}, "id": "39075"}, {"type": "Feature", "properties": {"GEO_ID": "0500000US39083", "STATE": "39", "COUNTY": "083", "NAME": "Knox", "LSAD": "County", "CENSUSAREA": 525.494}, "geometry": {"type": "Polygon", "coordinates": [[[-82.364344, 40.240957], [-82.476114, 40.264703], [-82.750747, 40.276996], [-82.750235, 40.284087], [-82.749896, 40.288636], [-82.744931, 40.349603], [-82.646503, 40.345076], [-82.623609, 40.549879], [-82.374898, 40.550871], [-82.336962, 40.555001], [-82.22011, 40.568206], [-82.179069, 40.573112], [-82.184607, 40.45628], [-82.184467, 40.454262], [-82.195911, 40.239071], [-82.326025, 40.239725], [-82.364344, 40.240957]]]}, "id": "39083"}, {"type": "Feature", "properties": {"GEO_ID": "0500000US39089", "STATE": "39", "COUNTY": "089", "NAME": "Licking", "LSAD": "County", "CENSUSAREA": 682.5}, "geometry": {"type": "Polygon", "coordinates": [[[-82.581813, 39.930156], [-82.782495, 39.939662], [-82.761827, 40.125855], [-82.750747, 40.276996], [-82.476114, 40.264703], [-82.364344, 40.240957], [-82.326025, 40.239725], [-82.195911, 40.239071], [-82.182823, 40.238624], [-82.187105, 40.16688], [-82.198772, 39.95014], [-82.233974, 39.91326], [-82.462813, 39.93038], [-82.473423, 39.925065], [-82.581813, 39.930156]]]}, "id": "39089"}, {"type": "Feature", "properties": {"GEO_ID": "0500000US39119", "STATE": "39", "COUNTY": "119", "NAME": "Muskingum", "LSAD": "County", "CENSUSAREA": 664.579}, "geometry": {"type": "Polygon", "coordinates": [[[-82.076639, 39.77096], [-82.072934, 39.816227], [-82.170047, 39.82075], [-82.162372, 39.909374], [-82.233974, 39.91326], [-82.198772, 39.95014], [-82.187105, 40.16688], [-81.716868, 40.152863], [-81.716276, 40.152166], [-81.728611, 39.931728], [-81.694146, 39.842636], [-81.697442, 39.755572], [-82.076639, 39.77096]]]}, "id": "39119"}]}