{"type": "FeatureCollection", "features": [{"type": "Feature", "properties": {"GEO_ID": "0500000US39035", "STATE": "39", "COUNTY": "035", "NAME": "Cuyahoga", "LSAD": "County", "CENSUSAREA": 457.191}, "geometry": {"type": "Polygon", "coordinates": [[[-81.878053, 41.275044], [-81.877066, 41.343557], [-81.971262, 41.351268], [-81.96813, 41.506422], [-81.964912, 41.505446], [-81.962664, 41.501341], [-81.958463, 41.498642], [-81.937862, 41.491443], [-81.930404, 41.490457], [-81.928652, 41.490226], [-81.87736, 41.483445], [-81.860262, 41.483841], [-81.850141, 41.486255], [-81.837092, 41.489367], [-81.836059, 41.489614], [-81.810992, 41.495592], [-81.810758, 41.495648], [-81.801207, 41.496223], [-81.800253, 41.496281], [-81.799746, 41.496311], [-81.794449, 41.49663], [-81.794157, 41.496648], [-81.782258, 41.49605], [-81.768898, 41.491663], [-81.768856, 41.491649], [-81.762489, 41.49046], [-81.75861, 41.489736], [-81.746095, 41.4874], [-81.745818, 41.487348], [-81.744755, 41.48715], [-81.744272, 41.487263], [-81.741852, 41.487827], [-81.738755, 41.48855], [-81.732674, 41.491437], [-81.727806, 41.493749], [-81.726429, 41.494402], [-81.725763, 41.494718], [-81.71931, 41.497782], [-81.716836, 41.498957], [-81.71559, 41.499549], [-81.710986, 41.501734], [-81.710953, 41.50175], [-81.707622, 41.505108], [-81.706864, 41.505872], [-81.69325, 41.514161], [-81.691248, 41.515379], [-81.688058, 41.517321], [-81.664884, 41.53143], [-81.664851, 41.53145], [-81.649872, 41.535775], [-81.648453, 41.536185], [-81.641055, 41.538321], [-81.633652, 41.540458], [-81.627431, 41.544163], [-81.61691, 41.550428], [-81.616567, 41.550633], [-81.615816, 41.551079], [-81.610163, 41.554446], [-81.60967, 41.55474], [-81.599747, 41.560649], [-81.593144, 41.565462], [-81.593092, 41.5655], [-81.591981, 41.56631], [-81.591471, 41.566682], [-81.579815, 41.575178], [-81.579746, 41.575228], [-81.579727, 41.575243], [-81.579285, 41.575565], [-81.578666, 41.576016], [-81.577459, 41.576896], [-81.575715, 41.578167], [-81.575577, 41.578267], [-81.562844, 41.587549], [-81.531674, 41.612972], [-81.531612, 41.613023], [-81.529955, 41.614374], [-81.529742, 41.614548], [-81.527026, 41.615373], [-81.520707, 41.617292], [-81.509359, 41.620739], [-81.50044, 41.623448], [-81.48864, 41.631348], [-81.488934, 41.627948], [-81.488062, 41.598556], [-81.488139, 41.577328], [-81.487842, 41.570051], [-81.419936, 41.56995], [-81.41763, 41.56967], [-81.408992, 41.56985], [-81.391005, 41.569716], [-81.391694, 41.348272], [-81.399585, 41.348573], [-81.450331, 41.349148], [-81.592653, 41.351119], [-81.598061, 41.350913], [-81.590542, 41.277554], [-81.68495, 41.277146], [-81.878053, 41.275044]]]}, "id": "39035"}, {"type": "Feature", "properties": {"GEO_ID": "0500000US39085", "STATE": "39", "COUNTY": "085", "NAME": "Lake", "LSAD": "County", "CENSUSAREA": 227.493}, "geometry": {"type": "Polygon", "coordinates": [[[-81.391005, 41.569716], [-81.408992, 41.56985], [-81.41763, 41.56967], [-81.419936, 41.56995], [-81.487842, 41.570051], [-81.488139, 41.577328], [-81.488062, 41.598556], [-81.488934, 41.627948], [-81.48864, 41.631348], [-81.486919, 41.632704], [-81.477544, 41.640086], [-81.466038, 41.649148], [-81.452461, 41.663139], [-81.447734, 41.668011], [-81.443647, 41.672222], [-81.442843, 41.673051], [-81.44272, 41.673178], [-81.442645, 41.673255], [-81.442552, 41.673314], [-81.441803, 41.673783], [-81.441339, 41.674074], [-81.438971, 41.67556], [-81.437809, 41.676289], [-81.437014, 41.676788], [-81.435582, 41.677686], [-81.431441, 41.680285], [-81.413062, 41.691816], [-81.407984, 41.695002], [-81.406098, 41.696185], [-81.404476, 41.697203], [-81.402417, 41.698495], [-81.400686, 41.699581], [-81.400617, 41.699624], [-81.388632, 41.707144], [-81.388269, 41.707355], [-81.380935, 41.711622], [-81.374509, 41.715361], [-81.374454, 41.715393], [-81.373666, 41.715852], [-81.372587, 41.71648], [-81.368913, 41.718618], [-81.36867, 41.718759], [-81.367498, 41.719441], [-81.353229, 41.727743], [-81.330154, 41.737938], [-81.309499, 41.747064], [-81.30701, 41.748164], [-81.306495, 41.748392], [-81.301626, 41.750543], [-81.288892, 41.758945], [-81.286925, 41.760243], [-81.279925, 41.759944], [-81.279187, 41.759859], [-81.265576, 41.758298], [-81.264224, 41.758143], [-81.263751, 41.758239], [-81.26311, 41.758369], [-81.259349, 41.75913], [-81.25552, 41.759905], [-81.252977, 41.76042], [-81.251918, 41.760634], [-81.248672, 41.761291], [-81.248609, 41.761316], [-81.247832, 41.761623], [-81.247607, 41.761712], [-81.202359, 41.77957], [-81.201721, 41.779822], [-81.192684, 41.783389], [-81.184368, 41.786671], [-81.183328, 41.78712], [-81.167638, 41.793903], [-81.122295, 41.813503], [-81.112885, 41.817571], [-81.098931, 41.821319], [-81.095592, 41.822216], [-81.092716, 41.822988], [-81.05192, 41.839557], [-81.024525, 41.846469], [-81.01049, 41.853962], [-81.002663, 41.854846], [-81.002117, 41.854908], [-81.004763, 41.726436], [-81.003631, 41.715137], [-81.102258, 41.714307], [-81.101422, 41.641457], [-81.294669, 41.640889], [-81.29588, 41.56995], [-81.391005, 41.569716]]]}, "id": "39085"}, {"type": "Feature", "properties": {"GEO_ID": "0500000US39055", "STATE": "39", "COUNTY": "055", "NAME": "Geauga", "LSAD": "County", "CENSUSAREA": 400.164}, "geometry": {"type": "Polygon", "coordinates": [[[-81.003066, 41.425928], [-81.003194, 41.424482], [-81.003319, 41.34786], [-81.391694, 41.348272], [-81.391005, 41.569716], [-81.29588, 41.56995], [-81.294669, 41.640889], [-81.101422, 41.641457], [-81.102258, 41.714307], [-81.003631, 41.715137], [-81.00299, 41.700009], [-81.003125, 41.501685], [-81.003066, 41.425928]]]}, "id": "39055"}, {"type": "Feature", "properties": {"GEO_ID": "0500000US39153", "STATE": "39", "COUNTY": "153", "NAME": "Summit", "LSAD": "County", "CENSUSAREA": 412.748}, "geometry": {"type": "Polygon", "coordinates": [[[-81.590542, 41.277554], [-81.598061, 41.350913], [-81.592653, 41.351119], [-81.450331, 41.349148], [-81.399585, 41.348573], [-81.391694, 41.348272], [-81.391686, 41.3413], [-81.391933, 41.336635], [-81.391593, 41.33155], [-81.391831, 41.276654], [-81.392357, 41.136952], [-81.392114, 41.135722], [-81.393429, 40.988528], [-81.420418, 40.906504], [-81.467584, 40.907965], [-81.64595, 40.914257], [-81.647736, 40.914386], [-81.688491, 40.98859], [-81.685646, 41.202132], [-81.68495, 41.277146], [-81.590542, 41.277554]]]}, "id": "39153"}, {"type": "Feature", "properties": {"GEO_ID": "0500000US39093", "STATE": "39", "COUNTY": "093", "NAME": "Lorain", "LSAD": "County", "CENSUSAREA": 491.101}, "geometry": {"type": "Polygon", "coordinates": [[[-81.96813, 41.506422], [-81.971262, 41.351268], [-81.877066, 41.343557], [-81.878053, 41.275044], [-81.897853, 41.274916], [-81.906227, 41.275392], [-81.914792, 41.275469], [-81.920513, 41.275379], [-81.927005, 41.274818], [-81.972485, 41.274829], [-81.973895, 41.199831], [-82.072465, 41.19985], [-82.074266, 41.136456], [-82.169875, 41.137102], [-82.171492, 41.063537], [-82.336496, 41.065761], [-82.342314, 41.283554], [-82.348076, 41.428431], [-82.334182, 41.430243], [-82.29158, 41.428442], [-82.283488, 41.429283], [-82.268479, 41.430842], [-82.254678, 41.434441], [-82.193375, 41.46454], [-82.18885, 41.468097], [-82.186174, 41.47344], [-82.184774, 41.47404], [-82.181598, 41.471634], [-82.165373, 41.47444], [-82.094169, 41.495039], [-82.011966, 41.515639], [-81.994565, 41.51444], [-81.96813, 41.506422]]]}, "id": "39093"}]}