{"type": "FeatureCollection", "features": [{"type": "Feature", "properties": {"GEO_ID": "0500000US39049", "STATE": "39", "COUNTY": "049", "NAME": "Franklin", "LSAD": "County", "CENSUSAREA": 532.188}, "geometry": {"type": "Polygon", "coordinates": [[[-82.811458, 39.932374], [-82.824254, 39.794996], [-83.013071, 39.804394], [-83.243702, 39.812503], [-83.25383, 40.049218], [-83.206273, 40.107733], [-83.170208, 40.106927], [-83.169981, 40.143087], [-83.149055, 40.141563], [-83.063981, 40.138289], [-82.761827, 40.125855], [-82.782495, 39.939662], [-82.810797, 39.941162], [-82.811458, 39.932374]]]}, "id": "39049"}, {"type": "Feature", "properties": {"GEO_ID": "0500000US39041", "STATE": "39", "COUNTY": "041", "NAME": "Delaware", "LSAD": "County", "CENSUSAREA": 443.098}, "geometry": {"type": "Polygon", "coordinates": [[[-82.749896, 40.288636], [-82.750235, 40.284087], [-82.750747, 40.276996], [-82.761827, 40.125855], [-83.063981, 40.138289], [-83.149055, 40.141563], [-83.169981, 40.143087], [-83.17233, 40.244257], [-83.248428, 40.244466], [-83.248595, 40.443989], [-83.020798, 40.433795], [-82.924781, 40.415004], [-82.929588, 40.358123], [-82.744931, 40.349603], [-82.749896, 40.288636]]]}, "id": "39041"}, {"type": "Feature", "properties": {"GEO_ID": "0500000US39089", "STATE": "39", "COUNTY": "089", "NAME": "Licking", "LSAD": "County", "CENSUSAREA": 682.5}, "geometry": {"type": "Polygon", "coordinates": [[[-82.581813, 39.930156], [-82.782495, 39.939662], [-82.761827, 40.125855], [-82.750747, 40.276996], [-82.476114, 40.264703], [-82.364344, 40.240957], [-82.326025, 40.239725], [-82.195911, 40.239071], [-82.182823, 40.238624], [-82.187105, 40.16688], [-82.198772, 39.95014], [-82.233974, 39.91326], [-82.462813, 39.93038], [-82.473423, 39.925065], [-82.581813, 39.930156]]]}, "id": "39089"}, {"type": "Feature", "properties": {"GEO_ID": "0500000US39045", "STATE": "39", "COUNTY": "045", "NAME": "Fairfield", "LSAD": "County", "CENSUSAREA": 504.411}, "geometry": {"type": "Polygon", "coordinates": [[[-82.824254, 39.794996], [-82.811458, 39.932374], [-82.810797, 39.941162], [-82.782495, 39.939662], [-82.581813, 39.930156], [-82.473423, 39.925065], [-82.462813, 39.93038], [-82.472402, 39.837223], [-82.396594, 39.833057], [-82.374531, 39.654959], [-82.490329, 39.661704], [-82.496123, 39.602849], [-82.617546, 39.608605], [-82.620088, 39.563987], [-82.731518, 39.554445], [-82.842953, 39.56148], [-82.824254, 39.794996]]]}, "id": "39045"}, {"type": "Feature", "properties": {"GEO_ID": "0500000US39129", "STATE": "39", "COUNTY": "129", "NAME": "Pickaway", "LSAD": "County", "CENSUSAREA": 501.32}, "geometry": {"type": "Polygon", "coordinates": [[[-82.740729, 39.46835], [-82.998204, 39.480061], [-82.98456, 39.506754], [-83.266737, 39.516249], [-83.252435, 39.695438], [-83.243702, 39.812503], [-83.013071, 39.804394], [-82.824254, 39.794996], [-82.842953, 39.56148], [-82.731518, 39.554445], [-82.740729, 39.46835]]]}, "id": "39129"}]}