{"type": "FeatureCollection", "features": [{"type": "Feature", "properties": {"GEO_ID": "0500000US39061", "STATE": "39", "COUNTY": "061", "NAME": "Hamilton", "LSAD": "County", "CENSUSAREA": 405.91}, "geometry": {"type": "Polygon", "coordinates": [[[-84.510057, 39.093593], [-84.603444, 39.073699], [-84.620112, 39.073457], [-84.623732, 39.074427], [-84.632446, 39.07676], [-84.684847, 39.100459], [-84.689747, 39.104159], [-84.718548, 39.137059], [-84.732048, 39.144458], [-84.744149, 39.147458], [-84.754449, 39.146658], [-84.766749, 39.138558], [-84.78768, 39.115297], [-84.820157, 39.10548], [-84.819985, 39.149081], [-84.819826, 39.156504], [-84.819802, 39.157613], [-84.819813, 39.244334], [-84.819801, 39.247806], [-84.819859, 39.251018], [-84.819633, 39.261855], [-84.819622, 39.27159], [-84.819451, 39.305152], [-84.819451, 39.305153], [-84.630992, 39.311942], [-84.44696, 39.300808], [-84.428363, 39.298659], [-84.391125, 39.297585], [-84.353209, 39.292287], [-84.259431, 39.270796], [-84.316698, 39.226944], [-84.319936, 39.022081], [-84.326539, 39.027463], [-84.432841, 39.094261], [-84.493743, 39.10246], [-84.502062, 39.096641], [-84.506082, 39.095081], [-84.509743, 39.09366], [-84.510057, 39.093593]]]}, "id": "39061"}, {"type": "Feature", "properties": {"GEO_ID": "0500000US39017", "STATE": "39", "COUNTY": "017", "NAME": "Butler", "LSAD": "County", "CENSUSAREA": 467.056}, "geometry": {"type": "Polygon", "coordinates": [[[-84.348199, 39.348512], [-84.353209, 39.292287], [-84.391125, 39.297585], [-84.428363, 39.298659], [-84.44696, 39.300808], [-84.630992, 39.311942], [-84.819451, 39.305153], [-84.819352, 39.309454], [-84.817453, 39.391753], [-84.815754, 39.477352], [-84.815754, 39.477358], [-84.815555, 39.510952], [-84.815555, 39.511052], [-84.815355, 39.52195], [-84.815355, 39.521951], [-84.815155, 39.548051], [-84.814955, 39.566251], [-84.814955, 39.567251], [-84.815036, 39.567695], [-84.478927, 39.56879], [-84.479213, 39.591024], [-84.474246, 39.590155], [-84.365232, 39.589493], [-84.332089, 39.548803], [-84.348199, 39.348512]]]}, "id": "39017"}, {"type": "Feature", "properties": {"GEO_ID": "0500000US39165", "STATE": "39", "COUNTY": "165", "NAME": "Warren", "LSAD": "County", "CENSUSAREA": 401.314}, "geometry": {"type": "Polygon", "coordinates": [[[-83.988613, 39.444397], [-84.006782, 39.255068], [-84.259431, 39.270796], [-84.353209, 39.292287], [-84.348199, 39.348512], [-84.332089, 39.548803], [-84.365232, 39.589493], [-84.187334, 39.583081], [-84.114195, 39.577983], [-83.977005, 39.569169], [-83.988613, 39.444397]]]}, "id": "39165"}, {"type": "Feature", "properties": {"GEO_ID": "0500000US39025", "STATE": "39", "COUNTY": "025", "NAME": "Clermont", "LSAD": "County", "CENSUSAREA": 452.1}, "geometry": {"type": "Polygon", "coordinates": [[[-84.259431, 39.270796], [-84.006782, 39.255068], [-83.99312, 39.254235], [-83.995284, 39.228189], [-84.052707, 38.770542], [-84.071491, 38.770475], [-84.205592, 38.802588], [-84.212904, 38.805707], [-84.2253, 38.817665], [-84.229954, 38.82765], [-84.231306, 38.830552], [-84.233727, 38.853576], [-84.232478, 38.874638], [-84.232132, 38.880483], [-84.234453, 38.893226], [-84.304698, 39.006455], [-84.31368, 39.016981], [-84.319936, 39.022081], [-84.316698, 39.226944], [-84.259431, 39.270796]]]}, "id": "39025"}, {"type": "Feature", "properties": {"GEO_ID": "0500000US39113", "STATE": "39", "COUNTY": "113", "NAME": "Montgomery", "LSAD": "County", "CENSUSAREA": 461.553}, "geometry": {"type": "Polygon", "coordinates": [[[-84.157223, 39.88563], [-84.154452, 39.885587], [-84.10483, 39.882652], [-84.098237, 39.882529], [-84.056413, 39.879875], [-84.051039, 39.879807], [-84.051636, 39.877665], [-84.052136, 39.866259], [-84.053136, 39.856158], [-84.053341, 39.855117], [-84.053736, 39.850458], [-84.055238, 39.835958], [-84.092938, 39.838345], [-84.096937, 39.793033], [-84.114195, 39.577983], [-84.187334, 39.583081], [-84.365232, 39.589493], [-84.474246, 39.590155], [-84.479213, 39.591024], [-84.485367, 39.918491], [-84.448023, 39.91923], [-84.446511, 39.918874], [-84.446101, 39.919266], [-84.425902, 39.919622], [-84.157671, 39.92297], [-84.157223, 39.88563]]]}, "id": "39113"}]}