{"type": "FeatureCollection", "features": [{"type": "Feature", "properties": {"GEO_ID": "0500000US39139", "STATE": "39", "COUNTY": "139", "NAME": "Richland", "LSAD": "County", "CENSUSAREA": 495.269}, "geometry": {"type": "Polygon", "coordinates": [[[-82.41648, 40.902252], [-82.378397, 40.727145], [-82.339211, 40.726683], [-82.336962, 40.555001], [-82.374898, 40.550871], [-82.623609, 40.549879], [-82.627191, 40.709416], [-82.727164, 40.711203], [-82.724792, 40.995638], [-82.432852, 40.992944], [-82.4179, 40.992938], [-82.41648, 40.902252]]]}, "id": "39139"}, {"type": "Feature", "properties": {"GEO_ID": "0500000US39005", "STATE": "39", "COUNTY": "005", "NAME": "Ashland", "LSAD": "County", "CENSUSAREA": 422.95}, "geometry": {"type": "Polygon", "coordinates": [[[-82.41648, 40.902252], [-82.4179, 40.992938], [-82.432852, 40.992944], [-82.436914, 41.065371], [-82.336496, 41.065761], [-82.171492, 41.063537], [-82.173359, 40.992046], [-82.129334, 40.991807], [-82.127904, 40.937321], [-82.128544, 40.929977], [-82.1279, 40.900902], [-82.12501, 40.886263], [-82.126199, 40.668229], [-82.220665, 40.66758], [-82.22011, 40.568206], [-82.336962, 40.555001], [-82.339211, 40.726683], [-82.378397, 40.727145], [-82.41648, 40.902252]]]}, "id": "39005"}, {"type": "Feature", "properties": {"GEO_ID": "0500000US39083", "STATE": "39", "COUNTY": "083", "NAME": "Knox", "LSAD": "County", "CENSUSAREA": 525.494}, "geometry": {"type": "Polygon", "coordinates": [[[-82.364344, 40.240957], [-82.476114, 40.264703], [-82.750747, 40.276996], [-82.750235, 40.284087], [-82.749896, 40.288636], [-82.744931, 40.349603], [-82.646503, 40.345076], [-82.623609, 40.549879], [-82.374898, 40.550871], [-82.336962, 40.555001], [-82.22011, 40.568206], [-82.179069, 40.573112], [-82.184607, 40.45628], [-82.184467, 40.454262], [-82.195911, 40.239071], [-82.326025, 40.239725], [-82.364344, 40.240957]]]}, "id": "39083"}, {"type": "Feature", "properties": {"GEO_ID": "0500000US39117", "STATE": "39", "COUNTY": "117", "NAME": "Morrow", "LSAD": "County", "CENSUSAREA": 406.079}, "geometry": {"type": "Polygon", "coordinates": [[[-82.727164, 40.711203], [-82.627191, 40.709416], [-82.623609, 40.549879], [-82.646503, 40.345076], [-82.744931, 40.349603], [-82.929588, 40.358123], [-82.924781, 40.415004], [-83.020798, 40.433795], [-82.958401, 40.490664], [-82.957817, 40.645148], [-82.859753, 40.646395], [-82.858302, 40.705019], [-82.727164, 40.711203]]]}, "id": "39117"}, {"type": "Feature", "properties": {"GEO_ID": "0500000US39169", "STATE": "39", "COUNTY": "169", "NAME": "Wayne", "LSAD": "County", "CENSUSAREA": 554.929}, "geometry": {"type": "Polygon", "coordinates": [[[-82.1279, 40.900902], [-82.128544, 40.929977], [-82.127904, 40.937321], [-82.129334, 40.991807], [-81.688491, 40.98859], [-81.647736, 40.914386], [-81.650045, 40.668117], [-82.126199, 40.668229], [-82.12501, 40.886263], [-82.1279, 40.900902]]]}, "id": "39169"}]}